STARLINK-33566          
1 62100U 24220N   26068.38070357  .00032113  00000+0  11707-2 0  9991
2 62100  43.0033 192.5791 0002914 270.6641  89.3877 15.27597971 73319
BLUEBON                 
1 62688U 25009CH  26068.70316231  .00010452  00000+0  37313-3 0  9992
2 62688  97.4017 152.2033 0001193  43.3900 316.7434 15.29047253 63767
